[{"OBJECT_NAME":"YAOGAN-10","OBJECT_ID":"2010-038A","EPOCH":"2026-03-09T23:33:06.516288","MEAN_MOTION":14.85018151,"ECCENTRICITY":0.00017039,"INCLINATION":97.9088,"RA_OF_ASC_NODE":93.1524,"ARG_OF_PERICENTER":88.5228,"MEAN_ANOMALY":358.1418,"EPHEMERIS_TYPE":0,"CLASSIFICATION_TYPE":"U","NORAD_CAT_ID":36834,"ELEMENT_SET_NO":999,"REV_AT_EPOCH":84248,"BSTAR":0.0003191762,"MEAN_MOTION_DOT":2.67e-5,"MEAN_MOTION_DDOT":0},{"OBJECT_NAME":"CZ-6A DEB","OBJECT_ID":"2022-151MF","EPOCH":"2026-03-09T16:42:09.866592","MEAN_MOTION":14.87246776,"ECCENTRICITY":0.0047609,"INCLINATION":98.5571,"RA_OF_ASC_NODE":128.9986,"ARG_OF_PERICENTER":197.25,"MEAN_ANOMALY":162.7098,"EPHEMERIS_TYPE":0,"CLASSIFICATION_TYPE":"U","NORAD_CAT_ID":54579,"ELEMENT_SET_NO":999,"REV_AT_EPOCH":9742,"BSTAR":0.0037329366,"MEAN_MOTION_DOT":0.00034427,"MEAN_MOTION_DDOT":0}]
